{
    "links": {
        "self": "http://www.neowsapp.com/rest/v1/neo/3766437?api_key=iIulBulltgU6a56xZRHN4H3l9WmuAYTsLGpBGhQ2"
    },
    "id": "3766437",
    "neo_reference_id": "3766437",
    "name": "(2017 AK13)",
    "designation": "2017 AK13",
    "nasa_jpl_url": "http://ssd.jpl.nasa.gov/sbdb.cgi?sstr=3766437",
    "absolute_magnitude_h": 23.6,
    "estimated_diameter": {
        "kilometers": {
            "estimated_diameter_min": 0.0506471459,
            "estimated_diameter_max": 0.1132504611
        },
        "meters": {
            "estimated_diameter_min": 50.6471458835,
            "estimated_diameter_max": 113.2504610618
        },
        "miles": {
            "estimated_diameter_min": 0.0314706677,
            "estimated_diameter_max": 0.0703705522
        },
        "feet": {
            "estimated_diameter_min": 166.1651821003,
            "estimated_diameter_max": 371.5566426699
        }
    },
    "is_potentially_hazardous_asteroid": false,
    "close_approach_data": [
        {
            "close_approach_date": "2017-01-03",
            "close_approach_date_full": "2017-Jan-03 19:32",
            "epoch_date_close_approach": 1483471920000,
            "relative_velocity": {
                "kilometers_per_second": "11.5329313087",
                "kilometers_per_hour": "41518.5527114615",
                "miles_per_hour": "25798.0140445189"
            },
            "miss_distance": {
                "astronomical": "0.022487594",
                "lunar": "8.747674066",
                "kilometers": "3364096.16382478",
                "miles": "2090352.425270764"
            },
            "orbiting_body": "Earth"
        }
    ],
    "orbital_data": {
        "orbit_id": "6",
        "orbit_determination_date": "2017-04-06 08:21:05",
        "first_observation_date": "2017-01-07",
        "last_observation_date": "2017-01-28",
        "data_arc_in_days": 21,
        "observations_used": 110,
        "orbit_uncertainty": "7",
        "minimum_orbit_intersection": ".0153418",
        "jupiter_tisserand_invariant": "3.257",
        "epoch_osculation": "2459000.5",
        "eccentricity": ".6093210110283007",
        "semi_major_axis": "2.36562819356871",
        "inclination": "8.682255122610922",
        "ascending_node_longitude": "109.54722806",
        "orbital_period": "1328.979121275847",
        "perihelion_distance": ".9242012309463712",
        "perihelion_argument": "320.1916161040713",
        "aphelion_distance": "3.80705515619105",
        "perihelion_time": "2459067.676632189844",
        "mean_anomaly": "341.8028837314412",
        "mean_motion": ".2708846167984886",
        "equinox": "J2000",
        "orbit_class": {
            "orbit_class_type": "APO",
            "orbit_class_description": "Near-Earth asteroid orbits which cross the Earth’s orbit similar to that of 1862 Apollo",
            "orbit_class_range": "a (semi-major axis) > 1.0 AU; q (perihelion) < 1.017 AU"
        }
    },
    "is_sentry_object": false
}